{"type": "FeatureCollection", "features": [ {"type": "Feature", "properties": {"norad_id": 35480, "name": "IRIDIUM 33 DEB", "group": "iridium-33-debris", "lat": -17.727595766497732, "lon": 24.977877544853808, "alt_km": 738.8646621726948, "timestamp": "2025-12-09T21:34:11.794526+00:00", "meta": {"OBJECT_NAME": "IRIDIUM 33 DEB", "OBJECT_ID": "1997-051QA", "EPOCH": "2025-12-09T13:22:09.093216", "MEAN_MOTION": 14.49742586, "ECCENTRICITY": 0.001578, "INCLINATION": 86.3576, "RA_OF_ASC_NODE": 26.2927, "ARG_OF_PERICENTER": 114.3096, "MEAN_ANOMALY": 245.9758, "EPHEMERIS_TYPE": 0, "CLASSIFICATION_TYPE": "U", "NORAD_CAT_ID": 35480, "ELEMENT_SET_NO": 999, "REV_AT_EPOCH": 86985, "BSTAR": 0.00089573822, "MEAN_MOTION_DOT": 3.474e-05, "MEAN_MOTION_DDOT": 0}, "tle": {"line1": "1 35480U 97051QA  25343.55704969  .00003474  00000+0  89574-3 0  9997", "line2": "2 35480  86.3576  26.2927 0015780 114.3096 245.9758 14.49742586869856"}}, "geometry": {"type": "Point", "coordinates": [24.977877544853808, -17.727595766497732]}}, {"type": "Feature", "properties": {"norad_id": 35484, "name": "IRIDIUM 33 DEB", "group": "iridium-33-debris", "lat": 9.26628305233791, "lon": -5.330996196163681, "alt_km": 583.078400333714, "timestamp": "2025-12-09T21:34:11.794543+00:00", "meta": {"OBJECT_NAME": "IRIDIUM 33 DEB", "OBJECT_ID": "1997-051QE", "EPOCH": "2025-12-09T07:06:09.545184", "MEAN_MOTION": 14.98295123, "ECCENTRICITY": 0.0023219, "INCLINATION": 86.3607, "RA_OF_ASC_NODE": 354.3558, "ARG_OF_PERICENTER": 136.4781, "MEAN_ANOMALY": 223.8288, "EPHEMERIS_TYPE": 0, "CLASSIFICATION_TYPE": "U", "NORAD_CAT_ID": 35484, "ELEMENT_SET_NO": 999, "REV_AT_EPOCH": 61964, "BSTAR": 0.0033574, "MEAN_MOTION_DOT": 0.00040354, "MEAN_MOTION_DDOT": 0}, "tle": {"line1": "1 35484U 97051QE  25343.29594381  .00040354  00000+0  33574-2 0  9993", "line2": "2 35484  86.3607 354.3558 0023219 136.4781 223.8288 14.98295123619649"}}, "geometry": {"type": "Point", "coordinates": [-5.330996196163681, 9.26628305233791]}}, {"type": "Feature", "properties": {"norad_id": 35488, "name": "IRIDIUM 33 DEB", "group": "iridium-33-debris", "lat": -82.08995522866562, "lon": -85.36998985130387, "alt_km": 642.3700754167039, "timestamp": "2025-12-09T21:34:11.794559+00:00", "meta": {"OBJECT_NAME": "IRIDIUM 33 DEB", "OBJECT_ID": "1997-051QJ", "EPOCH": "2025-12-08T21:39:05.105088", "MEAN_MOTION": 14.8290127, "ECCENTRICITY": 0.0030312, "INCLINATION": 86.3246, "RA_OF_ASC_NODE": 302.6469, "ARG_OF_PERICENTER": 55.0525, "MEAN_ANOMALY": 305.3538, "EPHEMERIS_TYPE": 0, "CLASSIFICATION_TYPE": "U", "NORAD_CAT_ID": 35488, "ELEMENT_SET_NO": 999, "REV_AT_EPOCH": 88209, "BSTAR": 0.0019549, "MEAN_MOTION_DOT": 0.00016018, "MEAN_MOTION_DDOT": 0}, "tle": {"line1": "1 35488U 97051QJ  25342.90214242  .00016018  00000+0  19549-2 0  9995", "line2": "2 35488  86.3246 302.6469 0030312  55.0525 305.3538 14.82901270882098"}}, "geometry": {"type": "Point", "coordinates": [-85.36998985130387, -82.08995522866562]}}, {"type": "Feature", "properties": {"norad_id": 35616, "name": "IRIDIUM 33 DEB", "group": "iridium-33-debris", "lat": 86.23498032497272, "lon": 62.67982479438736, "alt_km": 615.9515318668718, "timestamp": "2025-12-09T21:34:11.794575+00:00", "meta": {"OBJECT_NAME": "IRIDIUM 33 DEB", "OBJECT_ID": "1997-051QN", "EPOCH": "2025-12-08T11:07:50.751840", "MEAN_MOTION": 14.81642207, "ECCENTRICITY": 0.00095137, "INCLINATION": 86.3551, "RA_OF_ASC_NODE": 347.7164, "ARG_OF_PERICENTER": 179.1989, "MEAN_ANOMALY": 180.925, "EPHEMERIS_TYPE": 0, "CLASSIFICATION_TYPE": "U", "NORAD_CAT_ID": 35616, "ELEMENT_SET_NO": 999, "REV_AT_EPOCH": 87511, "BSTAR": 0.0020633393, "MEAN_MOTION_DOT": 0.00016284, "MEAN_MOTION_DDOT": 0}, "tle": {"line1": "1 35616U 97051QN  25342.46378185  .00016284  00000+0  20633-2 0  9997", "line2": "2 35616  86.3551 347.7164 0009513 179.1989 180.9250 14.81642207875117"}}, "geometry": {"type": "Point", "coordinates": [62.67982479438736, 86.23498032497272]}}, {"type": "Feature", "properties": {"norad_id": 35618, "name": "IRIDIUM 33 DEB", "group": "iridium-33-debris", "lat": 23.566434268847168, "lon": 173.1447265946381, "alt_km": 730.1102442535657, "timestamp": "2025-12-09T21:34:11.794592+00:00", "meta": {"OBJECT_NAME": "IRIDIUM 33 DEB", "OBJECT_ID": "1997-051QQ", "EPOCH": "2025-12-05T07:42:53.148672", "MEAN_MOTION": 14.52258119, "ECCENTRICITY": 0.00302089, "INCLINATION": 86.3407, "RA_OF_ASC_NODE": 356.7447, "ARG_OF_PERICENTER": 46.3254, "MEAN_ANOMALY": 314.0448, "EPHEMERIS_TYPE": 0, "CLASSIFICATION_TYPE": "U", "NORAD_CAT_ID": 35618, "ELEMENT_SET_NO": 999, "REV_AT_EPOCH": 65286, "BSTAR": 0.00091388234, "MEAN_MOTION_DOT": 3.753e-05, "MEAN_MOTION_DDOT": 0}, "tle": {"line1": "1 35618U 97051QQ  25339.32144848  .00003753  00000+0  91388-3 0  9990", "line2": "2 35618  86.3407 356.7447 0030208  46.3254 314.0448 14.52258119652865"}}, "geometry": {"type": "Point", "coordinates": [173.1447265946381, 23.566434268847168]}}, {"type": "Feature", "properties": {"norad_id": 35620, "name": "IRIDIUM 33 DEB", "group": "iridium-33-debris", "lat": -74.45494866250604, "lon": -154.474831599528, "alt_km": 675.2530841127173, "timestamp": "2025-12-09T21:34:11.794608+00:00", "meta": {"OBJECT_NAME": "IRIDIUM 33 DEB", "OBJECT_ID": "1997-051QS", "EPOCH": "2025-12-09T01:52:11.734176", "MEAN_MOTION": 14.37850667, "ECCENTRICITY": 0.0142612, "INCLINATION": 86.3875, "RA_OF_ASC_NODE": 218.9981, "ARG_OF_PERICENTER": 271.0752, "MEAN_ANOMALY": 87.411, "EPHEMERIS_TYPE": 0, "CLASSIFICATION_TYPE": "U", "NORAD_CAT_ID": 35620, "ELEMENT_SET_NO": 999, "REV_AT_EPOCH": 59913, "BSTAR": 0.0064940669, "MEAN_MOTION_DOT": 0.00022091, "MEAN_MOTION_DDOT": 0}, "tle": {"line1": "1 35620U 97051QS  25343.07791359  .00022091  00000+0  64941-2 0  9995", "line2": "2 35620  86.3875 218.9981 0142612 271.0752  87.4110 14.37850667599138"}}, "geometry": {"type": "Point", "coordinates": [-154.474831599528, -74.45494866250604]}}, {"type": "Feature", "properties": {"norad_id": 35622, "name": "IRIDIUM 33 DEB", "group": "iridium-33-debris", "lat": 51.71580633713034, "lon": -90.1744798733105, "alt_km": 548.03565879917, "timestamp": "2025-12-09T21:34:11.794627+00:00", "meta": {"OBJECT_NAME": "IRIDIUM 33 DEB", "OBJECT_ID": "1997-051QU", "EPOCH": "2025-12-08T18:19:37.394400", "MEAN_MOTION": 15.03927644, "ECCENTRICITY": 0.00075851, "INCLINATION": 86.2056, "RA_OF_ASC_NODE": 265.5603, "ARG_OF_PERICENTER": 342.656, "MEAN_ANOMALY": 47.239, "EPHEMERIS_TYPE": 0, "CLASSIFICATION_TYPE": "U", "NORAD_CAT_ID": 35622, "ELEMENT_SET_NO": 999, "REV_AT_EPOCH": 87300, "BSTAR": 0.0061817818, "MEAN_MOTION_DOT": 0.00086206, "MEAN_MOTION_DDOT": 0}, "tle": {"line1": "1 35622U 97051QU  25342.76362725  .00086206  00000+0  61818-2 0  9991", "line2": "2 35622  86.2056 265.5603 0007585 342.6560  47.2390 15.03927644873009"}}, "geometry": {"type": "Point", "coordinates": [-90.1744798733105, 51.71580633713034]}}, {"type": "Feature", "properties": {"norad_id": 35628, "name": "IRIDIUM 33 DEB", "group": "iridium-33-debris", "lat": -76.76887615582697, "lon": -153.93801284602335, "alt_km": 677.1532777433222, "timestamp": "2025-12-09T21:34:11.794641+00:00", "meta": {"OBJECT_NAME": "IRIDIUM 33 DEB", "OBJECT_ID": "1997-051RA", "EPOCH": "2025-12-08T19:51:11.189376", "MEAN_MOTION": 14.67493768, "ECCENTRICITY": 0.00109309, "INCLINATION": 86.3576, "RA_OF_ASC_NODE": 10.8203, "ARG_OF_PERICENTER": 356.3974, "MEAN_ANOMALY": 3.7159, "EPHEMERIS_TYPE": 0, "CLASSIFICATION_TYPE": "U", "NORAD_CAT_ID": 35628, "ELEMENT_SET_NO": 999, "REV_AT_EPOCH": 86389, "BSTAR": 0.0020097942, "MEAN_MOTION_DOT": 0.00011424, "MEAN_MOTION_DDOT": 0}, "tle": {"line1": "1 35628U 97051RA  25342.82721284  .00011424  00000+0  20098-2 0  9998", "line2": "2 35628  86.3576  10.8203 0010930 356.3974   3.7159 14.67493768863899"}}, "geometry": {"type": "Point", "coordinates": [-153.93801284602335, -76.76887615582697]}}, {"type": "Feature", "properties": {"norad_id": 35631, "name": "IRIDIUM 33 DEB", "group": "iridium-33-debris", "lat": -0.11940366022339001, "lon": 22.191405317339623, "alt_km": 745.4665306120196, "timestamp": "2025-12-09T21:34:11.794652+00:00", "meta": {"OBJECT_NAME": "IRIDIUM 33 DEB", "OBJECT_ID": "1997-051RD", "EPOCH": "2025-12-09T14:00:07.553664", "MEAN_MOTION": 14.47298365, "ECCENTRICITY": 0.00187945, "INCLINATION": 86.3674, "RA_OF_ASC_NODE": 22.3347, "ARG_OF_PERICENTER": 127.3571, "MEAN_ANOMALY": 30.9277, "EPHEMERIS_TYPE": 0, "CLASSIFICATION_TYPE": "U", "NORAD_CAT_ID": 35631, "ELEMENT_SET_NO": 999, "REV_AT_EPOCH": 87151, "BSTAR": 0.00059595754, "MEAN_MOTION_DOT": 2.204e-05, "MEAN_MOTION_DDOT": 0}, "tle": {"line1": "1 35631U 97051RD  25343.58342076  .00002204  00000+0  59596-3 0  9996", "line2": "2 35631  86.3674  22.3347 0018794 127.3571  30.9277 14.47298365871519"}}, "geometry": {"type": "Point", "coordinates": [22.191405317339623, -0.11940366022339001]}}, {"type": "Feature", "properties": {"norad_id": 35680, "name": "IRIDIUM 33 DEB", "group": "iridium-33-debris", "lat": -59.480742686839626, "lon": -150.57813715729185, "alt_km": 756.4199884624268, "timestamp": "2025-12-09T21:34:11.794662+00:00", "meta": {"OBJECT_NAME": "IRIDIUM 33 DEB", "OBJECT_ID": "1997-051RJ", "EPOCH": "2025-12-09T01:58:45.778656", "MEAN_MOTION": 14.2081535, "ECCENTRICITY": 0.01503258, "INCLINATION": 86.1019, "RA_OF_ASC_NODE": 23.1412, "ARG_OF_PERICENTER": 290.2359, "MEAN_ANOMALY": 98.0628, "EPHEMERIS_TYPE": 0, "CLASSIFICATION_TYPE": "U", "NORAD_CAT_ID": 35680, "ELEMENT_SET_NO": 999, "REV_AT_EPOCH": 60649, "BSTAR": 0.0045034024, "MEAN_MOTION_DOT": 0.00010924, "MEAN_MOTION_DDOT": 0}, "tle": {"line1": "1 35680U 97051RJ  25343.08247429  .00010924  00000+0  45034-2 0  9990", "line2": "2 35680  86.1019  23.1412 0150325 290.2359  98.0628 14.20815350606495"}}, "geometry": {"type": "Point", "coordinates": [-150.57813715729185, -59.480742686839626]}}]}